{
  "type": "FeatureCollection",
  "features": [
    {
      "type": "Feature",
      "properties": {
        "norad_id": 35290,
        "name": "COSMOS 2251 DEB",
        "group": "cosmos-2251-debris",
        "lat": -41.575072011458815,
        "lon": -94.21700775286835,
        "alt_km": 633.2650694465319,
        "timestamp": "2025-12-06T20:37:56.471617+00:00",
        "meta_object_name": "COSMOS 2251 DEB",
        "meta_object_id": "1993-036AJU",
        "meta_epoch": "2025-12-06T13:08:12.197760",
        "meta_mean_motion": 14.80095021,
        "meta_eccentricity": 0.00029705,
        "meta_inclination": 74.0056,
        "meta_ra_of_asc_node": 71.6588,
        "meta_arg_of_pericenter": 203.675,
        "meta_mean_anomaly": 156.429,
        "meta_ephemeris_type": 0,
        "meta_classification_type": "U",
        "meta_norad_cat_id": 35290,
        "meta_element_set_no": 999,
        "meta_rev_at_epoch": 87866,
        "meta_bstar": 0.0036640672,
        "meta_mean_motion_dot": 0.0002787,
        "meta_mean_motion_ddot": 0,
        "tle_line1": "1 35290U 93036AJU 25340.54736340  .00027870  00000+0  36641-2 0  9991",
        "tle_line2": "2 35290  74.0056  71.6588 0002970 203.6750 156.4290 14.80095021878661"
      },
      "geometry": {
        "type": "Point",
        "coordinates": [
          -94.21700775286835,
          -41.575072011458815
        ]
      }
    },
    {
      "type": "Feature",
      "properties": {
        "norad_id": 35432,
        "name": "COSMOS 2251 DEB",
        "group": "cosmos-2251-debris",
        "lat": -63.664972026963866,
        "lon": -7.444847794996823,
        "alt_km": 504.7358510914546,
        "timestamp": "2025-12-06T20:37:56.471627+00:00",
        "meta_object_name": "COSMOS 2251 DEB",
        "meta_object_id": "1993-036AKA",
        "meta_epoch": "2025-12-06T13:02:26.977920",
        "meta_mean_motion": 15.20957014,
        "meta_eccentricity": 0.00121909,
        "meta_inclination": 74.0212,
        "meta_ra_of_asc_node": 28.5919,
        "meta_arg_of_pericenter": 348.2705,
        "meta_mean_anomaly": 11.8207,
        "meta_ephemeris_type": 0,
        "meta_classification_type": "U",
        "meta_norad_cat_id": 35432,
        "meta_element_set_no": 999,
        "meta_rev_at_epoch": 87409,
        "meta_bstar": 0.0090355975,
        "meta_mean_motion_dot": 0.00206244,
        "meta_mean_motion_ddot": 0,
        "tle_line1": "1 35432U 93036AKA 25340.54336780  .00206244  00000+0  90356-2 0  9990",
        "tle_line2": "2 35432  74.0212  28.5919 0012190 348.2705  11.8207 15.20957014874092"
      },
      "geometry": {
        "type": "Point",
        "coordinates": [
          -7.444847794996823,
          -63.664972026963866
        ]
      }
    },
    {
      "type": "Feature",
      "properties": {
        "norad_id": 35433,
        "name": "COSMOS 2251 DEB",
        "group": "cosmos-2251-debris",
        "lat": 24.28045643127405,
        "lon": 161.80002107419637,
        "alt_km": 780.6466061830224,
        "timestamp": "2025-12-06T20:37:56.471641+00:00",
        "meta_object_name": "COSMOS 2251 DEB",
        "meta_object_id": "1993-036AKB",
        "meta_epoch": "2025-12-05T19:38:16.327392",
        "meta_mean_motion": 14.34730306,
        "meta_eccentricity": 0.00254596,
        "meta_inclination": 74.0335,
        "meta_ra_of_asc_node": 351.128,
        "meta_arg_of_pericenter": 48.4343,
        "meta_mean_anomaly": 128.9694,
        "meta_ephemeris_type": 0,
        "meta_classification_type": "U",
        "meta_norad_cat_id": 35433,
        "meta_element_set_no": 999,
        "meta_rev_at_epoch": 86481,
        "meta_bstar": 0.00044039966,
        "meta_mean_motion_dot": 1.226e-05,
        "meta_mean_motion_ddot": 0,
        "tle_line1": "1 35433U 93036AKB 25339.81824453  .00001226  00000+0  44040-3 0  9991",
        "tle_line2": "2 35433  74.0335 351.1280 0025459  48.4343 128.9694 14.34730306864810"
      },
      "geometry": {
        "type": "Point",
        "coordinates": [
          161.80002107419637,
          24.28045643127405
        ]
      }
    },
    {
      "type": "Feature",
      "properties": {
        "norad_id": 35434,
        "name": "COSMOS 2251 DEB",
        "group": "cosmos-2251-debris",
        "lat": -71.45432187797559,
        "lon": 102.7759247917496,
        "alt_km": 761.9458092990708,
        "timestamp": "2025-12-06T20:37:56.471652+00:00",
        "meta_object_name": "COSMOS 2251 DEB",
        "meta_object_id": "1993-036AKC",
        "meta_epoch": "2025-12-06T00:52:57.349632",
        "meta_mean_motion": 14.25656227,
        "meta_eccentricity": 0.00876297,
        "meta_inclination": 74.0405,
        "meta_ra_of_asc_node": 225.7219,
        "meta_arg_of_pericenter": 297.8832,
        "meta_mean_anomaly": 61.3459,
        "meta_ephemeris_type": 0,
        "meta_classification_type": "U",
        "meta_norad_cat_id": 35434,
        "meta_element_set_no": 999,
        "meta_rev_at_epoch": 86022,
        "meta_bstar": 0.0011383466,
        "meta_mean_motion_dot": 2.784e-05,
        "meta_mean_motion_ddot": 0,
        "tle_line1": "1 35434U 93036AKC 25340.03677488  .00002784  00000+0  11383-2 0  9995",
        "tle_line2": "2 35434  74.0405 225.7219 0087629 297.8832  61.3459 14.25656227860226"
      },
      "geometry": {
        "type": "Point",
        "coordinates": [
          102.7759247917496,
          -71.45432187797559
        ]
      }
    },
    {
      "type": "Feature",
      "properties": {
        "norad_id": 35435,
        "name": "COSMOS 2251 DEB",
        "group": "cosmos-2251-debris",
        "lat": 56.746352483670904,
        "lon": 141.5663646247152,
        "alt_km": 634.7213423901576,
        "timestamp": "2025-12-06T20:37:56.471663+00:00",
        "meta_object_name": "COSMOS 2251 DEB",
        "meta_object_id": "1993-036AKD",
        "meta_epoch": "2025-12-06T15:33:19.570752",
        "meta_mean_motion": 14.78155636,
        "meta_eccentricity": 0.00089158,
        "meta_inclination": 74.011,
        "meta_ra_of_asc_node": 116.0521,
        "meta_arg_of_pericenter": 210.6381,
        "meta_mean_anomaly": 164.7127,
        "meta_ephemeris_type": 0,
        "meta_classification_type": "U",
        "meta_norad_cat_id": 35435,
        "meta_element_set_no": 999,
        "meta_rev_at_epoch": 87449,
        "meta_bstar": 0.0041982547,
        "meta_mean_motion_dot": 0.00030535,
        "meta_mean_motion_ddot": 0,
        "tle_line1": "1 35435U 93036AKD 25340.64814318  .00030535  00000+0  41983-2 0  9992",
        "tle_line2": "2 35435  74.0110 116.0521 0008915 210.6381 164.7127 14.78155636874491"
      },
      "geometry": {
        "type": "Point",
        "coordinates": [
          141.5663646247152,
          56.746352483670904
        ]
      }
    },
    {
      "type": "Feature",
      "properties": {
        "norad_id": 35439,
        "name": "COSMOS 2251 DEB",
        "group": "cosmos-2251-debris",
        "lat": 0.26852232678024085,
        "lon": 144.89179950205363,
        "alt_km": 794.5504406711116,
        "timestamp": "2025-12-06T20:37:56.471674+00:00",
        "meta_object_name": "COSMOS 2251 DEB",
        "meta_object_id": "1993-036AKH",
        "meta_epoch": "2025-12-06T05:59:35.063232",
        "meta_mean_motion": 13.92766526,
        "meta_eccentricity": 0.02419007,
        "meta_inclination": 74.0202,
        "meta_ra_of_asc_node": 145.8594,
        "meta_arg_of_pericenter": 316.5639,
        "meta_mean_anomaly": 224.7042,
        "meta_ephemeris_type": 0,
        "meta_classification_type": "U",
        "meta_norad_cat_id": 35439,
        "meta_element_set_no": 999,
        "meta_rev_at_epoch": 83870,
        "meta_bstar": 0.0024796152,
        "meta_mean_motion_dot": 4.056e-05,
        "meta_mean_motion_ddot": 0,
        "tle_line1": "1 35439U 93036AKH 25340.24971138  .00004056  00000+0  24796-2 0  9998",
        "tle_line2": "2 35439  74.0202 145.8594 0241900 316.5639 224.7042 13.92766526838700"
      },
      "geometry": {
        "type": "Point",
        "coordinates": [
          144.89179950205363,
          0.26852232678024085
        ]
      }
    },
    {
      "type": "Feature",
      "properties": {
        "norad_id": 35440,
        "name": "COSMOS 2251 DEB",
        "group": "cosmos-2251-debris",
        "lat": -71.85532264484532,
        "lon": 100.02831027075206,
        "alt_km": 680.056737248613,
        "timestamp": "2025-12-06T20:37:56.471684+00:00",
        "meta_object_name": "COSMOS 2251 DEB",
        "meta_object_id": "1993-036AKJ",
        "meta_epoch": "2025-12-06T09:38:05.104608",
        "meta_mean_motion": 14.68762875,
        "meta_eccentricity": 0.00690609,
        "meta_inclination": 74.0153,
        "meta_ra_of_asc_node": 219.9077,
        "meta_arg_of_pericenter": 2.2892,
        "meta_mean_anomaly": 357.858,
        "meta_ephemeris_type": 0,
        "meta_classification_type": "U",
        "meta_norad_cat_id": 35440,
        "meta_element_set_no": 999,
        "meta_rev_at_epoch": 68672,
        "meta_bstar": 0.00092938543,
        "meta_mean_motion_dot": 5.591e-05,
        "meta_mean_motion_ddot": 0,
        "tle_line1": "1 35440U 93036AKJ 25340.40144797  .00005591  00000+0  92939-3 0  9991",
        "tle_line2": "2 35440  74.0153 219.9077 0069060   2.2892 357.8580 14.68762875686726"
      },
      "geometry": {
        "type": "Point",
        "coordinates": [
          100.02831027075206,
          -71.85532264484532
        ]
      }
    }
  ]
}